OBJECT_NAME,OBJECT_ID,EPOCH,MEAN_MOTION,ECCENTRICITY,INCLINATION,RA_OF_ASC_NODE,ARG_OF_PERICENTER,MEAN_ANOMALY,EPHEMERIS_TYPE,CLASSIFICATION_TYPE,NORAD_CAT_ID,ELEMENT_SET_NO,REV_AT_EPOCH,BSTAR,MEAN_MOTION_DOT,MEAN_MOTION_DDOT
STARLINK-4793,2022-114BB,2026-07-06T06:00:04.000320,15.43041904,.00018362,53.2175,90.0592,81.3545,142.9949,0,U,53867,999,576,.39553547E-2,.181107E-2,0
STARLINK-4789,2022-114BC,2026-07-06T06:00:04.000320,15.27075622,.00006644,53.1603,90.4673,76.5139,96.8886,0,U,53868,999,579,.32034726E-2,.86886E-3,0
STARLINK-4810,2022-114BD,2026-07-06T06:00:04.000320,15.23561114,.00004458,53.1599,100.8335,114.7322,210.3948,0,U,53869,999,580,.46177482E-1,.1220385E-1,0
STARLINK-4732,2022-114BE,2026-07-06T06:00:04.000320,15.32431326,.00008733,53.1598,90.0782,58.2462,306.7229,0,U,53870,999,584,.39122448E-2,.125957E-2,0
STARLINK-4740,2022-114BF,2026-07-06T06:00:04.000320,15.27516607,.00004205,53.1607,90.1705,42.7280,274.4992,0,U,53871,999,560,.40572847E-2,.112007E-2,0
STARLINK-5028,2022-119A,2026-07-06T03:24:55.357632,15.08826983,.00015468,53.1599,152.3860,77.3770,282.7395,0,U,53886,999,20956,.3297461E-5,-.236E-5,0
STARLINK-5029,2022-119B,2026-07-06T04:44:23.362368,15.08827652,.00012773,53.1594,152.0184,80.6682,279.4454,0,U,53887,999,20957,-.15762006E-4,-.539E-5,0
STARLINK-5031,2022-119D,2026-07-06T03:14:18.587040,15.08820832,.00014044,53.1596,152.3401,86.4821,273.6331,0,U,53889,999,20956,.88443571E-4,.1119E-4,0
STARLINK-5050,2022-119E,2026-07-06T00:42:34.807392,15.08814334,.00016257,53.1610,117.4486,99.7885,260.3291,0,U,53890,999,21004,-.97071532E-4,-.1832E-4,0
STARLINK-5041,2022-119F,2026-07-06T06:00:04.000320,15.53202715,.00020491,53.2161,136.2058,68.1312,37.9440,0,U,53891,999,589,-.65716799E-2,-.399972E-2,0
STARLINK-5046,2022-119G,2026-07-06T04:12:33.310656,15.08828988,.00013414,53.1587,151.8831,86.1967,273.9178,0,U,53892,999,20957,.11087885E-4,-.112E-5,0
STARLINK-5052,2022-119H,2026-07-06T02:54:27.941472,15.08827188,.00012196,53.1587,152.2542,75.4245,284.6881,0,U,53893,999,20956,-.48717477E-4,-.1063E-4,0
STARLINK-5043,2022-119J,2026-07-06T06:00:04.000320,15.35656415,.00013497,53.2205,140.4123,69.3224,33.6827,0,U,53894,999,578,-.13545703E-1,-.449476E-2,0
STARLINK-5032,2022-119K,2026-07-06T07:47:58.373952,16.18009398,.00042359,53.2074,111.6444,249.1715,110.8871,0,U,53895,999,21015,.58607747E-3,.984396E-2,.68218871E-3
STARLINK-5037,2022-119L,2026-07-06T04:07:15.016512,15.08845958,.00013826,53.1591,151.8621,86.6395,273.4755,0,U,53896,999,20957,.58598181E-4,.645E-5,0
STARLINK-5035,2022-119M,2026-07-06T06:00:04.000320,15.85609331,.00005642,53.2158,127.2833,122.9389,132.7938,0,U,53897,999,589,.23575894E-2,.624584E-2,0
STARLINK-5044,2022-119N,2026-07-06T03:51:19.814400,15.08830864,.00012744,53.1595,151.7927,86.5840,273.5297,0,U,53898,999,20957,-.6790064E-5,-.396E-5,0
STARLINK-5042,2022-119P,2026-07-05T20:39:52.089984,16.28491273,.00089844,53.2045,113.6554,245.0817,114.9293,0,U,53899,999,21008,.79708906E-3,.3273461E-1,.1201256E-4
STARLINK-5045,2022-119Q,2026-07-06T03:40:44.680224,15.08779457,.00018144,53.1599,151.7467,87.9018,272.2181,0,U,53900,999,20957,.6217358E-3,.9605E-4,0
STARLINK-5021,2022-119S,2026-07-06T06:00:04.000320,15.14142863,.00006866,53.1593,101.2754,81.8843,159.5891,0,U,53902,999,580,.40497352E-2,.75161E-3,0
STARLINK-5022,2022-119T,2026-07-06T04:03:19.563552,15.08825883,.00012664,53.1587,151.8443,68.4880,291.6247,0,U,53903,999,20957,-.27731523E-4,-.729E-5,0
STARLINK-4787,2022-119U,2026-07-06T06:00:04.000320,15.16905781,.00017127,53.1604,151.1329,108.2706,151.1093,0,U,53904,999,580,.29941184E-2,.59903E-3,0
STARLINK-5003,2022-119V,2026-07-06T03:20:56.421888,15.08832552,.00012684,53.1587,142.3880,88.7167,271.3970,0,U,53905,999,20970,-.2229468E-5,-.323E-5,0
STARLINK-5054,2022-119W,2026-07-06T03:47:21.270048,15.08839978,.00011458,53.1588,141.8035,88.1917,271.9206,0,U,53906,999,20971,.17853462E-3,.2555E-4,0
STARLINK-5057,2022-119Y,2026-07-06T03:07:49.953792,15.10185802,.00015833,53.1603,142.3349,91.0342,269.0831,0,U,53908,999,20970,.92328156E-2,.155564E-2,0
STARLINK-4796,2022-119Z,2026-07-06T03:45:16.931808,15.08015196,.00011327,53.1624,142.5215,102.6281,257.4837,0,U,53909,999,20970,.26659253E-4,.129E-5,0
STARLINK-5048,2022-119AB,2026-07-06T03:15:38.214144,15.08831948,.00013303,53.1600,142.3656,90.5164,269.5980,0,U,53911,999,20970,-.4390007E-5,-.358E-5,0
STARLINK-5059,2022-119AC,2026-07-06T03:36:44.208288,15.08841352,.00010945,53.1585,141.7577,78.6318,281.4796,0,U,53912,999,20971,-.26023816E-4,-.702E-5,0
STARLINK-5053,2022-119AD,2026-07-06T05:59:53.640096,15.08822069,.00017002,53.1595,141.6543,91.9975,268.1211,0,U,53913,999,20972,-.6348914E-4,-.1298E-4,0
STARLINK-5040,2022-119AE,2026-07-06T02:43:48.817344,15.08829937,.00011779,53.1597,142.2322,65.1936,294.9178,0,U,53914,999,20970,.13981249E-3,.1937E-4,0
STARLINK-5051,2022-119AG,2026-07-05T21:58:08.974560,15.31690201,.00017461,53.1595,120.4152,75.1059,285.0136,0,U,53916,999,21000,-.22970747E-3,-.7484E-4,0
STARLINK-5036,2022-119AH,2026-07-06T03:24:29.191392,15.64196989,.00016501,53.2165,120.0186,115.7121,244.4066,0,U,53917,999,21002,-.32654674E-2,-.305422E-2,0
STARLINK-5012,2022-119AJ,2026-07-06T04:13:53.643648,15.08829238,.00012098,53.1599,141.9086,78.7516,281.3611,0,U,53918,999,20971,-.85726403E-4,-.1652E-4,0
STARLINK-5023,2022-119AK,2026-07-06T06:00:04.000320,15.23097914,.00013876,53.2167,138.4381,97.3095,241.1470,0,U,53919,999,581,.34138942E-2,.82126E-3,0
STARLINK-5025,2022-119AL,2026-07-06T04:34:54.022656,15.09824126,.00016866,53.1595,141.9917,78.9119,281.2063,0,U,53920,999,20971,.74384237E-2,.123471E-2,0
STARLINK-5002,2022-119AN,2026-07-06T03:52:39.732672,15.08829427,.00014505,53.1600,141.8179,91.1538,268.9619,0,U,53922,999,20971,-.73179665E-4,-.1452E-4,0
STARLINK-5004,2022-119AP,2026-07-06T02:27:52.625952,15.08842625,.00014946,53.1600,142.1581,98.8021,261.3140,0,U,53923,999,20970,.11239702E-3,.1501E-4,0
STARLINK-5001,2022-119AQ,2026-07-06T02:32:31.505280,15.49303881,.00012975,53.2155,126.1792,60.8808,299.2331,0,U,53924,999,20993,.7996887E-4,.4001E-4,0
STARLINK-5011,2022-119AR,2026-07-06T03:31:25.881312,15.08832933,.00012347,53.1598,141.7358,85.5361,274.5771,0,U,53925,999,20971,-.24778877E-4,-.682E-5,0
STARLINK-5014,2022-119AS,2026-07-06T06:00:04.000320,15.56730165,.00012715,53.2176,113.6709,58.1819,249.6647,0,U,53926,999,595,-.70454212E-2,-.48322E-2,0
STARLINK-5009,2022-119AU,2026-07-06T04:09:54.700128,15.08839041,.00015357,53.1601,131.9144,81.9411,278.1754,0,U,53928,999,20985,.8679081E-4,.1093E-4,0
STARLINK-5018,2022-119AV,2026-07-06T06:00:04.000320,15.14997371,.00024906,53.1598,141.9766,87.1801,105.0440,0,U,53929,999,570,.55742835E-2,.106571E-2,0
STARLINK-5010,2022-119AW,2026-07-06T06:00:04.000320,15.77005857,.00013307,53.2136,97.3987,63.4025,154.5664,0,U,53930,999,593,-.982997E-3,-.160491E-2,0
STARLINK-4772,2022-119AY,2026-07-06T02:59:04.563168,15.08819093,.00014177,53.1596,127.3272,100.4942,259.6209,0,U,53932,999,20992,-.11797834E-3,-.2164E-4,0
STARLINK-4782,2022-119AZ,2026-07-06T04:04:36.322176,15.08832664,.00015854,53.1607,131.8935,81.1407,278.9764,0,U,53933,999,20985,-.1378845E-3,-.2482E-4,0
STARLINK-4775,2022-119BA,2026-07-06T02:53:45.844800,15.08835681,.00016096,53.1605,127.3044,88.4772,271.6404,0,U,53934,999,20993,.5070782E-4,.519E-5,0
STARLINK-5000,2022-119BB,2026-07-06T04:01:32.189088,16.17372287,.00047875,53.2073,76.4480,261.6959,98.3537,0,U,53935,999,21063,.64334961E-3,.1029969E-1,.74703499E-3
STARLINK-4791,2022-119BC,2026-07-06T06:00:04.000320,15.31672374,.00012398,53.1592,124.7694,85.6140,184.2971,0,U,53936,999,580,.17614564E-2,.54649E-3,0
STARLINK-4633,2022-125A,2026-07-06T00:27:23.708160,15.08817044,.0001275,53.1606,52.8708,85.3522,274.7615,0,U,53964,999,20718,-.94276727E-4,-.1787E-4,0
STARLINK-4635,2022-125C,2026-07-06T00:16:47.392032,15.08815368,.00013848,53.1614,52.8257,80.9039,279.2109,0,U,53966,999,20718,-.13610123E-3,-.2452E-4,0
STARLINK-4634,2022-125D,2026-07-06T00:11:29.031360,15.08815006,.00012593,53.1610,52.8022,88.7633,271.3503,0,U,53967,999,20718,-.94148592E-4,-.1785E-4,0
STARLINK-4629,2022-125E,2026-07-05T23:55:34.155840,15.08815117,.00013534,53.1616,52.7324,92.2382,267.8765,0,U,53968,999,20718,-.11836521E-3,-.217E-4,0
STARLINK-4468,2022-125F,2026-07-06T00:06:10.901376,15.08814506,.00013673,53.1619,52.7793,90.7714,269.3434,0,U,53969,999,20718,-.14420015E-3,-.2581E-4,0
STARLINK-4567,2022-125G,2026-07-06T00:05:15.064512,15.10760472,.00012477,53.1611,47.7940,113.8820,246.2303,0,U,53970,999,20726,.71913709E-2,.122466E-2,0
STARLINK-5156,2022-125K,2026-07-05T22:14:52.453536,15.08816486,.00013082,53.1604,53.0070,88.4588,271.6554,0,U,53973,999,20717,-.13825576E-3,-.2486E-4,0
STARLINK-5159,2022-125L,2026-07-05T21:29:47.118336,15.08831238,.00012893,53.1611,32.8729,83.1374,276.9764,0,U,53974,999,20745,-.2717946E-4,-.72E-5,0
STARLINK-5137,2022-125M,2026-07-06T00:41:11.225760,15.08840344,.00010708,53.1598,47.2489,81.9040,278.2072,0,U,53975,999,20726,-.23754962E-3,-.4067E-4,0
STARLINK-5134,2022-125N,2026-07-06T06:00:04.000320,15.16979057,.00007742,53.1609,31.6364,162.3049,144.7380,0,U,53976,999,584,.21499182E-2,.42913E-3,0
STARLINK-5094,2022-125P,2026-07-06T06:00:04.000320,15.13587626,.00017325,53.1597,46.7062,105.1801,140.5629,0,U,53977,999,569,.30308216E-3,.5204E-4,0
STARLINK-5148,2022-125Q,2026-07-05T23:53:35.095776,15.08821023,.00014463,53.1619,47.7341,79.6789,280.4366,0,U,53978,999,20725,-.69774659E-4,-.1398E-4,0
STARLINK-5123,2022-125R,2026-07-06T00:04:11.371296,15.08820353,.00013246,53.1616,47.7812,90.6295,269.4848,0,U,53979,999,20725,-.80635009E-4,-.157E-4,0
STARLINK-5133,2022-125S,2026-07-05T21:51:38.317824,15.08830018,.00015268,53.1618,47.9233,93.9837,266.1329,0,U,53980,999,20724,-.42326402E-4,-.961E-5,0
STARLINK-5149,2022-125T,2026-07-06T06:00:04.000320,15.12641899,.00015248,53.1602,31.4271,32.1612,25.6291,0,U,53981,999,580,.25381691E-2,.44859E-3,0
